{"type":"FeatureCollection","features":[{"type":"Feature","geometry":{"type":"Point","coordinates":[0.00374,51.53193]},"properties":{"name":"Abbey Road DLR Station","modes":["dlr"]}},{"type":"Feature","geometry":{"type":"Point","coordinates":[0.12137,51.49124]},"properties":{"name":"Abbey Wood","modes":["elizabeth-line"]}},{"type":"Feature","geometry":{"type":"Point","coordinates":[-0.26297,51.50872]},"properties":{"name":"Acton Central Rail Station","modes":["overground"]}},{"type":"Feature","geometry":{"type":"Point","coordinates":[-0.26676,51.51718]},"properties":{"name":"Acton Main Line Rail Station","modes":["elizabeth-line","national-rail"]}},{"type":"Feature","geometry":{"type":"Point","coordinates":[-0.28046,51.50306]},"properties":{"name":"Acton Town Underground Station","modes":["tube"]}},{"type":"Feature","geometry":{"type":"Point","coordinates":[-0.03269,51.35624]},"properties":{"name":"Addington Village Tram Stop","modes":["tram"]}},{"type":"Feature","geometry":{"type":"Point","coordinates":[-0.07324,51.37981]},"properties":{"name":"Addiscombe Tram Stop","modes":["tram"]}},{"type":"Feature","geometry":{"type":"Point","coordinates":[-0.07238,51.51504]},"properties":{"name":"Aldgate East Underground Station","modes":["tube"]}},{"type":"Feature","geometry":{"type":"Point","coordinates":[-0.07569,51.51425]},"properties":{"name":"Aldgate Underground Station","modes":["tube"]}},{"type":"Feature","geometry":{"type":"Point","coordinates":[-0.01314,51.511]},"properties":{"name":"All Saints DLR Station","modes":["dlr"]}},{"type":"Feature","geometry":{"type":"Point","coordinates":[-0.29961,51.54063]},"properties":{"name":"Alperton Underground Station","modes":["tube"]}},{"type":"Feature","geometry":{"type":"Point","coordinates":[-0.12386,51.38222]},"properties":{"name":"Ampere Way Tram Stop","modes":["tram"]}},{"type":"Feature","geometry":{"type":"Point","coordinates":[-0.06589,51.41215]},"properties":{"name":"Anerley Rail Station","modes":["national-rail","overground"]}},{"type":"Feature","geometry":{"type":"Point","coordinates":[-0.10592,51.53179]},"properties":{"name":"Angel Underground Station","modes":["tube"]}},{"type":"Feature","geometry":{"type":"Point","coordinates":[-0.13482,51.56548]},"properties":{"name":"Archway Underground Station","modes":["tube"]}},{"type":"Feature","geometry":{"type":"Point","coordinates":[-0.05835,51.39153]},"properties":{"name":"Arena Tram Stop","modes":["tram"]}},{"type":"Feature","geometry":{"type":"Point","coordinates":[-0.13306,51.61645]},"properties":{"name":"Arnos Grove Underground Station","modes":["tube"]}},{"type":"Feature","geometry":{"type":"Point","coordinates":[-0.10746,51.55866]},"properties":{"name":"Arsenal Underground Station","modes":["tube"]}},{"type":"Feature","geometry":{"type":"Point","coordinates":[-0.04948,51.4068]},"properties":{"name":"Avenue Road Tram Stop","modes":["tram"]}},{"type":"Feature","geometry":{"type":"Point","coordinates":[-0.15713,51.52288]},"properties":{"name":"Baker Street Underground Station","modes":["tube"]}},{"type":"Feature","geometry":{"type":"Point","coordinates":[-0.153,51.44329]},"properties":{"name":"Balham Underground Station","modes":["tube"]}},{"type":"Feature","geometry":{"type":"Point","coordinates":[-0.08851,51.51323]},"properties":{"name":"Bank DLR Station","modes":["dlr"]}},{"type":"Feature","geometry":{"type":"Point","coordinates":[-0.08779,51.51225]},"properties":{"name":"Bank Underground Station","modes":["tube"]}},{"type":"Feature","geometry":{"type":"Point","coordinates":[-0.09799,51.52027]},"properties":{"name":"Barbican Underground Station","modes":["tube"]}},{"type":"Feature","geometry":{"type":"Point","coordinates":[0.0809,51.5395]},"properties":{"name":"Barking Rail Station","modes":["national-rail","overground"]}},{"type":"Feature","geometry":{"type":"Point","coordinates":[0.11596,51.51953]},"properties":{"name":"Barking Riverside","modes":["overground"]}},{"type":"Feature","geometry":{"type":"Point","coordinates":[0.08105,51.53932]},"properties":{"name":"Barking Underground Station","modes":["tube"]}},{"type":"Feature","geometry":{"type":"Point","coordinates":[0.08858,51.58569]},"properties":{"name":"Barkingside Underground Station","modes":["tube"]}},{"type":"Feature","geometry":{"type":"Point","coordinates":[-0.21343,51.49031]},"properties":{"name":"Barons Court Underground Station","modes":["tube"]}},{"type":"Feature","geometry":{"type":"Point","coordinates":[-0.14214,51.47993]},"properties":{"name":"Battersea Power Station Underground Station","modes":["tube"]}},{"type":"Feature","geometry":{"type":"Point","coordinates":[-0.18794,51.51228]},"properties":{"name":"Bayswater Underground Station","modes":["tube"]}},{"type":"Feature","geometry":{"type":"Point","coordinates":[-0.0264,51.41073]},"properties":{"name":"Beckenham Junction Tram Stop","modes":["tram"]}},{"type":"Feature","geometry":{"type":"Point","coordinates":[-0.04342,51.40953]},"properties":{"name":"Beckenham Road Tram Stop","modes":["tram"]}},{"type":"Feature","geometry":{"type":"Point","coordinates":[0.06145,51.51436]},"properties":{"name":"Beckton DLR Station","modes":["dlr"]}},{"type":"Feature","geometry":{"type":"Point","coordinates":[0.05493,51.50879]},"properties":{"name":"Beckton Park DLR Station","modes":["dlr"]}},{"type":"Feature","geometry":{"type":"Point","coordinates":[0.12702,51.54033]},"properties":{"name":"Becontree Underground Station","modes":["tube"]}},{"type":"Feature","geometry":{"type":"Point","coordinates":[-0.14217,51.38924]},"properties":{"name":"Beddington Lane Tram Stop","modes":["tram"]}},{"type":"Feature","geometry":{"type":"Point","coordinates":[-0.17781,51.40133]},"properties":{"name":"Belgrave Walk Tram Stop","modes":["tram"]}},{"type":"Feature","geometry":{"type":"Point","coordinates":[-0.16465,51.55031]},"properties":{"name":"Belsize Park Underground Station","modes":["tube"]}},{"type":"Feature","geometry":{"type":"Point","coordinates":[-0.06399,51.49775]},"properties":{"name":"Bermondsey Underground Station","modes":["tube"]}},{"type":"Feature","geometry":{"type":"Point","coordinates":[-0.05957,51.52392]},"properties":{"name":"Bethnal Green Rail Station","modes":["national-rail","overground"]}},{"type":"Feature","geometry":{"type":"Point","coordinates":[-0.05551,51.52722]},"properties":{"name":"Bethnal Green Underground Station","modes":["tube"]}},{"type":"Feature","geometry":{"type":"Point","coordinates":[-0.05579,51.40377]},"properties":{"name":"Birkbeck Tram Stop","modes":["tram"]}},{"type":"Feature","geometry":{"type":"Point","coordinates":[-0.10366,51.51158]},"properties":{"name":"Blackfriars Underground Station","modes":["tube"]}},{"type":"Feature","geometry":{"type":"Point","coordinates":[-0.07056,51.38476]},"properties":{"name":"Blackhorse Lane Tram Stop","modes":["tram"]}},{"type":"Feature","geometry":{"type":"Point","coordinates":[-0.04124,51.5866]},"properties":{"name":"Blackhorse Road Rail Station","modes":["overground"]}},{"type":"Feature","geometry":{"type":"Point","coordinates":[-0.04115,51.58692]},"properties":{"name":"Blackhorse Road Underground Station","modes":["tube"]}},{"type":"Feature","geometry":{"type":"Point","coordinates":[-0.00697,51.50799]},"properties":{"name":"Blackwall DLR Station","modes":["dlr"]}},{"type":"Feature","geometry":{"type":"Point","coordinates":[-0.14725,51.51389]},"properties":{"name":"Bond Street","modes":["elizabeth-line"]}},{"type":"Feature","geometry":{"type":"Point","coordinates":[-0.14972,51.5143]},"properties":{"name":"Bond Street Underground Station","modes":["tube"]}},{"type":"Feature","geometry":{"type":"Point","coordinates":[-0.09337,51.5012]},"properties":{"name":"Borough Underground Station","modes":["tube"]}},{"type":"Feature","geometry":{"type":"Point","coordinates":[-0.32494,51.49564]},"properties":{"name":"Boston Manor Underground Station","modes":["tube"]}},{"type":"Feature","geometry":{"type":"Point","coordinates":[-0.12423,51.60703]},"properties":{"name":"Bounds Green Underground Station","modes":["tube"]}},{"type":"Feature","geometry":{"type":"Point","coordinates":[-0.02094,51.52786]},"properties":{"name":"Bow Church DLR Station","modes":["dlr"]}},{"type":"Feature","geometry":{"type":"Point","coordinates":[-0.02513,51.52694]},"properties":{"name":"Bow Road Underground Station","modes":["tube"]}},{"type":"Feature","geometry":{"type":"Point","coordinates":[-0.21362,51.57665]},"properties":{"name":"Brent Cross Underground Station","modes":["tube"]}},{"type":"Feature","geometry":{"type":"Point","coordinates":[0.29959,51.6136]},"properties":{"name":"Brentwood Rail Station","modes":["elizabeth-line"]}},{"type":"Feature","geometry":{"type":"Point","coordinates":[-0.11489,51.46262]},"properties":{"name":"Brixton Underground Station","modes":["tube"]}},{"type":"Feature","geometry":{"type":"Point","coordinates":[-0.03754,51.46465]},"properties":{"name":"Brockley Rail Station","modes":["national-rail","overground"]}},{"type":"Feature","geometry":{"type":"Point","coordinates":[-0.01154,51.52484]},"properties":{"name":"Bromley-by-Bow Underground Station","modes":["tube"]}},{"type":"Feature","geometry":{"type":"Point","coordinates":[-0.21005,51.54073]},"properties":{"name":"Brondesbury Park Rail Station","modes":["overground"]}},{"type":"Feature","geometry":{"type":"Point","coordinates":[-0.20231,51.54517]},"properties":{"name":"Brondesbury Rail Station","modes":["overground"]}},{"type":"Feature","geometry":{"type":"Point","coordinates":[-0.06987,51.59396]},"properties":{"name":"Bruce Grove Rail Station","modes":["national-rail","overground"]}},{"type":"Feature","geometry":{"type":"Point","coordinates":[0.04676,51.6266]},"properties":{"name":"Buckhurst Hill Underground Station","modes":["bus","tube"]}},{"type":"Feature","geometry":{"type":"Point","coordinates":[-0.26405,51.60277]},"properties":{"name":"Burnt Oak Underground Station","modes":["tube"]}},{"type":"Feature","geometry":{"type":"Point","coordinates":[-0.06922,51.64152]},"properties":{"name":"Bush Hill Park Rail Station","modes":["bus","overground"]}},{"type":"Feature","geometry":{"type":"Point","coordinates":[-0.38475,51.64558]},"properties":{"name":"Bushey Rail Station","modes":["national-rail","overground"]}},{"type":"Feature","geometry":{"type":"Point","coordinates":[-0.3848,51.6454]},"properties":{"name":"Bushey Rail Station","modes":["overground"]}},{"type":"Feature","geometry":{"type":"Point","coordinates":[-0.11673,51.54304]},"properties":{"name":"Caledonian Road & Barnsbury Rail Station","modes":["overground"]}},{"type":"Feature","geometry":{"type":"Point","coordinates":[-0.11849,51.54852]},"properties":{"name":"Caledonian Road Underground Station","modes":["tube"]}},{"type":"Feature","geometry":{"type":"Point","coordinates":[-0.05728,51.53197]},"properties":{"name":"Cambridge Heath (London) Rail Station","modes":["national-rail","overground"]}},{"type":"Feature","geometry":{"type":"Point","coordinates":[-0.1387,51.54179]},"properties":{"name":"Camden Road Rail Station","modes":["overground"]}},{"type":"Feature","geometry":{"type":"Point","coordinates":[-0.14274,51.53929]},"properties":{"name":"Camden Town Underground Station","modes":["tube"]}},{"type":"Feature","geometry":{"type":"Point","coordinates":[-0.04972,51.49799]},"properties":{"name":"Canada Water Rail Station","modes":["overground"]}},{"type":"Feature","geometry":{"type":"Point","coordinates":[-0.0494,51.49793]},"properties":{"name":"Canada Water Underground Station","modes":["tube"]}},{"type":"Feature","geometry":{"type":"Point","coordinates":[-0.01883,51.5062]},"properties":{"name":"Canary Wharf","modes":["elizabeth-line"]}},{"type":"Feature","geometry":{"type":"Point","coordinates":[-0.021,51.50484]},"properties":{"name":"Canary Wharf DLR Station","modes":["dlr"]}},{"type":"Feature","geometry":{"type":"Point","coordinates":[-0.01825,51.50349]},"properties":{"name":"Canary Wharf Underground Station","modes":["tube"]}},{"type":"Feature","geometry":{"type":"Point","coordinates":[0.0081,51.51413]},"properties":{"name":"Canning Town DLR Station","modes":["dlr"]}},{"type":"Feature","geometry":{"type":"Point","coordinates":[0.00832,51.51358]},"properties":{"name":"Canning Town Underground Station","modes":["tube"]}},{"type":"Feature","geometry":{"type":"Point","coordinates":[-0.09043,51.51151]},"properties":{"name":"Cannon Street Underground Station","modes":["tube"]}},{"type":"Feature","geometry":{"type":"Point","coordinates":[-0.09219,51.54873]},"properties":{"name":"Canonbury Rail Station","modes":["overground"]}},{"type":"Feature","geometry":{"type":"Point","coordinates":[-0.29469,51.6077]},"properties":{"name":"Canons Park Underground Station","modes":["tube"]}},{"type":"Feature","geometry":{"type":"Point","coordinates":[-0.38594,51.62835]},"properties":{"name":"Carpenders Park Rail Station","modes":["overground"]}},{"type":"Feature","geometry":{"type":"Point","coordinates":[-0.10392,51.37577]},"properties":{"name":"Centrale Tram Stop","modes":["tram"]}},{"type":"Feature","geometry":{"type":"Point","coordinates":[0.12896,51.56804]},"properties":{"name":"Chadwell Heath Rail Station","modes":["elizabeth-line"]}},{"type":"Feature","geometry":{"type":"Point","coordinates":[-0.15339,51.54412]},"properties":{"name":"Chalk Farm Underground Station","modes":["tube"]}},{"type":"Feature","geometry":{"type":"Point","coordinates":[-0.11158,51.51825]},"properties":{"name":"Chancery Lane Underground Station","modes":["tube"]}},{"type":"Feature","geometry":{"type":"Point","coordinates":[-0.12728,51.50741]},"properties":{"name":"Charing Cross Underground Station","modes":["tube"]}},{"type":"Feature","geometry":{"type":"Point","coordinates":[0.07504,51.61792]},"properties":{"name":"Chigwell Underground Station","modes":["bus","tube"]}},{"type":"Feature","geometry":{"type":"Point","coordinates":[0.0099,51.63309]},"properties":{"name":"Chingford Rail Station","modes":["overground"]}},{"type":"Feature","geometry":{"type":"Point","coordinates":[-0.26797,51.49463]},"properties":{"name":"Chiswick Park Underground Station","modes":["tube"]}},{"type":"Feature","geometry":{"type":"Point","coordinates":[-0.10436,51.37371]},"properties":{"name":"Church Street Tram Stop","modes":["tram"]}},{"type":"Feature","geometry":{"type":"Point","coordinates":[-0.13832,51.46174]},"properties":{"name":"Clapham Common Underground Station","modes":["tube"]}},{"type":"Feature","geometry":{"type":"Point","coordinates":[-0.13252,51.46548]},"properties":{"name":"Clapham High Street Rail Station","modes":["overground"]}},{"type":"Feature","geometry":{"type":"Point","coordinates":[-0.17022,51.46419]},"properties":{"name":"Clapham Junction Rail Station","modes":["overground"]}},{"type":"Feature","geometry":{"type":"Point","coordinates":[-0.17029,51.46419]},"properties":{"name":"Clapham Junction Rail Station","modes":["national-rail","overground"]}},{"type":"Feature","geometry":{"type":"Point","coordinates":[-0.13002,51.46513]},"properties":{"name":"Clapham North Underground Station","modes":["tube"]}},{"type":"Feature","geometry":{"type":"Point","coordinates":[-0.14758,51.45265]},"properties":{"name":"Clapham South Underground Station","modes":["tube"]}},{"type":"Feature","geometry":{"type":"Point","coordinates":[-0.05702,51.56164]},"properties":{"name":"Clapton Rail Station","modes":["national-rail","overground"]}},{"type":"Feature","geometry":{"type":"Point","coordinates":[-0.14917,51.65152]},"properties":{"name":"Cockfosters Underground Station","modes":["tube"]}},{"type":"Feature","geometry":{"type":"Point","coordinates":[-0.24992,51.59542]},"properties":{"name":"Colindale Underground Station","modes":["tube"]}},{"type":"Feature","geometry":{"type":"Point","coordinates":[-0.17809,51.41816]},"properties":{"name":"Colliers Wood Underground Station","modes":["tube"]}},{"type":"Feature","geometry":{"type":"Point","coordinates":[-0.05956,51.35979]},"properties":{"name":"Coombe Lane Tram Stop","modes":["tram"]}},{"type":"Feature","geometry":{"type":"Point","coordinates":[-0.12444,51.51309]},"properties":{"name":"Covent Garden Underground Station","modes":["tube"]}},{"type":"Feature","geometry":{"type":"Point","coordinates":[-0.01461,51.49573]},"properties":{"name":"Crossharbour DLR Station","modes":["dlr"]}},{"type":"Feature","geometry":{"type":"Point","coordinates":[-0.11715,51.5713]},"properties":{"name":"Crouch Hill Rail Station","modes":["overground"]}},{"type":"Feature","geometry":{"type":"Point","coordinates":[-0.44172,51.64704]},"properties":{"name":"Croxley Underground Station","modes":["tube"]}},{"type":"Feature","geometry":{"type":"Point","coordinates":[-0.07261,51.41811]},"properties":{"name":"Crystal Palace Rail Station","modes":["national-rail","overground"]}},{"type":"Feature","geometry":{"type":"Point","coordinates":[0.0267,51.50972]},"properties":{"name":"Custom House (for ExCel) DLR Station","modes":["dlr"]}},{"type":"Feature","geometry":{"type":"Point","coordinates":[0.02673,51.50977]},"properties":{"name":"Custom House Rail Station","modes":["elizabeth-line"]}},{"type":"Feature","geometry":{"type":"Point","coordinates":[-0.01081,51.48167]},"properties":{"name":"Cutty Sark (for Maritime Greenwich) DLR Station","modes":["dlr"]}},{"type":"Feature","geometry":{"type":"Point","coordinates":[0.06392,51.50847]},"properties":{"name":"Cyprus DLR Station","modes":["dlr"]}},{"type":"Feature","geometry":{"type":"Point","coordinates":[0.16602,51.5441]},"properties":{"name":"Dagenham East Underground Station","modes":["tube"]}},{"type":"Feature","geometry":{"type":"Point","coordinates":[0.14753,51.54164]},"properties":{"name":"Dagenham Heathway Underground Station","modes":["tube"]}},{"type":"Feature","geometry":{"type":"Point","coordinates":[-0.07514,51.54612]},"properties":{"name":"Dalston Junction Rail Station","modes":["bus","overground"]}},{"type":"Feature","geometry":{"type":"Point","coordinates":[-0.0757,51.54815]},"properties":{"name":"Dalston Kingsland Rail Station","modes":["overground"]}},{"type":"Feature","geometry":{"type":"Point","coordinates":[0.08378,51.64539]},"properties":{"name":"Debden Underground Station","modes":["tube"]}},{"type":"Feature","geometry":{"type":"Point","coordinates":[-0.08936,51.4682]},"properties":{"name":"Denmark Hill Rail Station","modes":["national-rail","overground"]}},{"type":"Feature","geometry":{"type":"Point","coordinates":[-0.02244,51.47422]},"properties":{"name":"Deptford Bridge DLR Station","modes":["dlr"]}},{"type":"Feature","geometry":{"type":"Point","coordinates":[-0.01761,51.52267]},"properties":{"name":"Devons Road DLR Station","modes":["dlr"]}},{"type":"Feature","geometry":{"type":"Point","coordinates":[-0.23907,51.55195]},"properties":{"name":"Dollis Hill Underground Station","modes":["tube"]}},{"type":"Feature","geometry":{"type":"Point","coordinates":[-0.20768,51.41756]},"properties":{"name":"Dundonald Road Tram Stop","modes":["tram"]}},{"type":"Feature","geometry":{"type":"Point","coordinates":[-0.30175,51.51484]},"properties":{"name":"Ealing Broadway Rail Station","modes":["elizabeth-line","national-rail"]}},{"type":"Feature","geometry":{"type":"Point","coordinates":[-0.30146,51.51502]},"properties":{"name":"Ealing Broadway Underground Station","modes":["tube"]}},{"type":"Feature","geometry":{"type":"Point","coordinates":[-0.28826,51.51014]},"properties":{"name":"Ealing Common Underground Station","modes":["tube"]}},{"type":"Feature","geometry":{"type":"Point","coordinates":[-0.19338,51.49206]},"properties":{"name":"Earl's Court Underground Station","modes":["tube"]}},{"type":"Feature","geometry":{"type":"Point","coordinates":[-0.24725,51.51661]},"properties":{"name":"East Acton Underground Station","modes":["tube"]}},{"type":"Feature","geometry":{"type":"Point","coordinates":[-0.09242,51.37486]},"properties":{"name":"East Croydon Tram Stop","modes":["tram"]}},{"type":"Feature","geometry":{"type":"Point","coordinates":[-0.16501,51.58713]},"properties":{"name":"East Finchley Underground Station","modes":["tube"]}},{"type":"Feature","geometry":{"type":"Point","coordinates":[0.05119,51.53895]},"properties":{"name":"East Ham Underground Station","modes":["tube"]}},{"type":"Feature","geometry":{"type":"Point","coordinates":[-0.00233,51.50936]},"properties":{"name":"East India DLR Station","modes":["bus","dlr"]}},{"type":"Feature","geometry":{"type":"Point","coordinates":[-0.211,51.4592]},"properties":{"name":"East Putney Underground Station","modes":["tube"]}},{"type":"Feature","geometry":{"type":"Point","coordinates":[-0.39737,51.57651]},"properties":{"name":"Eastcote Underground Station","modes":["tube"]}},{"type":"Feature","geometry":{"type":"Point","coordinates":[-0.17015,51.5203]},"properties":{"name":"Edgware Road (Bakerloo) Underground Station","modes":["tube"]}},{"type":"Feature","geometry":{"type":"Point","coordinates":[-0.16783,51.51986]},"properties":{"name":"Edgware Road (Circle Line) Underground Station","modes":["tube"]}},{"type":"Feature","geometry":{"type":"Point","coordinates":[-0.27493,51.61365]},"properties":{"name":"Edgware Underground Station","modes":["tube"]}},{"type":"Feature","geometry":{"type":"Point","coordinates":[-0.06111,51.62493]},"properties":{"name":"Edmonton Green Rail Station","modes":["national-rail","overground"]}},{"type":"Feature","geometry":{"type":"Point","coordinates":[-0.10061,51.49454]},"properties":{"name":"Elephant & Castle Underground Station","modes":["tube"]}},{"type":"Feature","geometry":{"type":"Point","coordinates":[0.19864,51.54977]},"properties":{"name":"Elm Park Underground Station","modes":["tube"]}},{"type":"Feature","geometry":{"type":"Point","coordinates":[-0.04956,51.39847]},"properties":{"name":"Elmers End Tram Stop","modes":["tram"]}},{"type":"Feature","geometry":{"type":"Point","coordinates":[-0.01673,51.46907]},"properties":{"name":"Elverson Road DLR Station","modes":["dlr"]}},{"type":"Feature","geometry":{"type":"Point","coordinates":[-0.12267,51.50706]},"properties":{"name":"Embankment Underground Station","modes":["tube"]}},{"type":"Feature","geometry":{"type":"Point","coordinates":[0.22011,51.56864]},"properties":{"name":"Emerson Park Rail Station","modes":["overground"]}},{"type":"Feature","geometry":{"type":"Point","coordinates":[-0.07933,51.65203]},"properties":{"name":"Enfield Town Rail Station","modes":["overground"]}},{"type":"Feature","geometry":{"type":"Point","coordinates":[-0.13583,51.5256]},"properties":{"name":"Euston Square Underground Station","modes":["tube"]}},{"type":"Feature","geometry":{"type":"Point","coordinates":[-0.13424,51.52819]},"properties":{"name":"Euston Underground Station","modes":["tube"]}},{"type":"Feature","geometry":{"type":"Point","coordinates":[0.091,51.59562]},"properties":{"name":"Fairlop Underground Station","modes":["tube"]}},{"type":"Feature","geometry":{"type":"Point","coordinates":[-0.10491,51.52019]},"properties":{"name":"Farringdon","modes":["elizabeth-line"]}},{"type":"Feature","geometry":{"type":"Point","coordinates":[-0.10491,51.52025]},"properties":{"name":"Farringdon Underground Station","modes":["tube"]}},{"type":"Feature","geometry":{"type":"Point","coordinates":[-0.02453,51.35132]},"properties":{"name":"Fieldway Tram Stop","modes":["tram"]}},{"type":"Feature","geometry":{"type":"Point","coordinates":[-0.19253,51.60092]},"properties":{"name":"Finchley Central Underground Station","modes":["tube"]}},{"type":"Feature","geometry":{"type":"Point","coordinates":[-0.18314,51.55027]},"properties":{"name":"Finchley Road & Frognal Rail Station","modes":["overground"]}},{"type":"Feature","geometry":{"type":"Point","coordinates":[-0.17985,51.54682]},"properties":{"name":"Finchley Road Underground Station","modes":["tube"]}},{"type":"Feature","geometry":{"type":"Point","coordinates":[-0.10683,51.56416]},"properties":{"name":"Finsbury Park Underground Station","modes":["tube"]}},{"type":"Feature","geometry":{"type":"Point","coordinates":[0.02435,51.54943]},"properties":{"name":"Forest Gate Rail Station","modes":["elizabeth-line"]}},{"type":"Feature","geometry":{"type":"Point","coordinates":[-0.05316,51.43928]},"properties":{"name":"Forest Hill Rail Station","modes":["national-rail","overground"]}},{"type":"Feature","geometry":{"type":"Point","coordinates":[-0.19542,51.48008]},"properties":{"name":"Fulham Broadway Underground Station","modes":["tube"]}},{"type":"Feature","geometry":{"type":"Point","coordinates":[0.07155,51.50894]},"properties":{"name":"Gallions Reach DLR Station","modes":["dlr"]}},{"type":"Feature","geometry":{"type":"Point","coordinates":[0.06618,51.57654]},"properties":{"name":"Gants Hill Underground Station","modes":["tube"]}},{"type":"Feature","geometry":{"type":"Point","coordinates":[-0.09875,51.37398]},"properties":{"name":"George Street Tram Stop","modes":["tram"]}},{"type":"Feature","geometry":{"type":"Point","coordinates":[0.20596,51.5819]},"properties":{"name":"Gidea Park Rail Station","modes":["elizabeth-line","national-rail"]}},{"type":"Feature","geometry":{"type":"Point","coordinates":[-0.18266,51.49432]},"properties":{"name":"Gloucester Road Underground Station","modes":["tube"]}},{"type":"Feature","geometry":{"type":"Point","coordinates":[-0.19404,51.57226]},"properties":{"name":"Golders Green Underground Station","modes":["tube"]}},{"type":"Feature","geometry":{"type":"Point","coordinates":[-0.22671,51.502]},"properties":{"name":"Goldhawk Road Underground Station","modes":["tube"]}},{"type":"Feature","geometry":{"type":"Point","coordinates":[-0.13436,51.5206]},"properties":{"name":"Goodge Street Underground Station","modes":["tube"]}},{"type":"Feature","geometry":{"type":"Point","coordinates":[0.11081,51.56558]},"properties":{"name":"Goodmayes Rail Station","modes":["elizabeth-line"]}},{"type":"Feature","geometry":{"type":"Point","coordinates":[-0.15077,51.55533]},"properties":{"name":"Gospel Oak Rail Station","modes":["overground"]}},{"type":"Feature","geometry":{"type":"Point","coordinates":[0.09207,51.61338]},"properties":{"name":"Grange Hill Underground Station","modes":["bus","tube"]}},{"type":"Feature","geometry":{"type":"Point","coordinates":[-0.04315,51.35455]},"properties":{"name":"Gravel Hill Tram Stop","modes":["tram"]}},{"type":"Feature","geometry":{"type":"Point","coordinates":[-0.14426,51.52384]},"properties":{"name":"Great Portland Street Underground Station","modes":["tube"]}},{"type":"Feature","geometry":{"type":"Point","coordinates":[-0.14279,51.50695]},"properties":{"name":"Green Park Underground Station","modes":["tube"]}},{"type":"Feature","geometry":{"type":"Point","coordinates":[-0.34605,51.54242]},"properties":{"name":"Greenford Underground Station","modes":["tube"]}},{"type":"Feature","geometry":{"type":"Point","coordinates":[-0.01367,51.47809]},"properties":{"name":"Greenwich DLR Station","modes":["dlr"]}},{"type":"Feature","geometry":{"type":"Point","coordinates":[-0.27529,51.49168]},"properties":{"name":"Gunnersbury Rail Station","modes":["overground"]}},{"type":"Feature","geometry":{"type":"Point","coordinates":[-0.27527,51.4918]},"properties":{"name":"Gunnersbury Underground Station","modes":["tube"]}},{"type":"Feature","geometry":{"type":"Point","coordinates":[-0.05606,51.54711]},"properties":{"name":"Hackney Central Rail Station","modes":["overground"]}},{"type":"Feature","geometry":{"type":"Point","coordinates":[-0.06082,51.54876]},"properties":{"name":"Hackney Downs Rail Station","modes":["national-rail","overground"]}},{"type":"Feature","geometry":{"type":"Point","coordinates":[-0.02492,51.54341]},"properties":{"name":"Hackney Wick Rail Station","modes":["overground"]}},{"type":"Feature","geometry":{"type":"Point","coordinates":[-0.07567,51.53871]},"properties":{"name":"Haggerston Rail Station","modes":["overground"]}},{"type":"Feature","geometry":{"type":"Point","coordinates":[0.09348,51.60366]},"properties":{"name":"Hainault Underground Station","modes":["tube"]}},{"type":"Feature","geometry":{"type":"Point","coordinates":[-0.22362,51.4923]},"properties":{"name":"Hammersmith (Dist&Picc Line) Underground Station","modes":["tube"]}},{"type":"Feature","geometry":{"type":"Point","coordinates":[-0.2243,51.49331]},"properties":{"name":"Hammersmith (H&C Line) Underground Station","modes":["tube"]}},{"type":"Feature","geometry":{"type":"Point","coordinates":[-0.1657,51.55521]},"properties":{"name":"Hampstead Heath Rail Station","modes":["overground"]}},{"type":"Feature","geometry":{"type":"Point","coordinates":[-0.17746,51.55624]},"properties":{"name":"Hampstead Underground Station","modes":["tube"]}},{"type":"Feature","geometry":{"type":"Point","coordinates":[-0.2927,51.53018]},"properties":{"name":"Hanger Lane Underground Station","modes":["tube"]}},{"type":"Feature","geometry":{"type":"Point","coordinates":[-0.33858,51.51183]},"properties":{"name":"Hanwell Rail Station","modes":["elizabeth-line"]}},{"type":"Feature","geometry":{"type":"Point","coordinates":[-0.25767,51.53629]},"properties":{"name":"Harlesden Rail Station","modes":["overground"]}},{"type":"Feature","geometry":{"type":"Point","coordinates":[-0.25788,51.53631]},"properties":{"name":"Harlesden Underground Station","modes":["tube"]}},{"type":"Feature","geometry":{"type":"Point","coordinates":[0.23313,51.59277]},"properties":{"name":"Harold Wood Rail Station","modes":["elizabeth-line"]}},{"type":"Feature","geometry":{"type":"Point","coordinates":[-0.09814,51.57718]},"properties":{"name":"Harringay Green Lanes Rail Station","modes":["overground"]}},{"type":"Feature","geometry":{"type":"Point","coordinates":[-0.06073,51.39979]},"properties":{"name":"Harrington Road Tram Stop","modes":["tram"]}},{"type":"Feature","geometry":{"type":"Point","coordinates":[-0.33457,51.59217]},"properties":{"name":"Harrow & Wealdstone Rail Station","modes":["national-rail","overground"]}},{"type":"Feature","geometry":{"type":"Point","coordinates":[-0.33522,51.59227]},"properties":{"name":"Harrow & Wealdstone Underground Station","modes":["tube"]}},{"type":"Feature","geometry":{"type":"Point","coordinates":[-0.33722,51.57919]},"properties":{"name":"Harrow-on-the-Hill Underground Station","modes":["tube"]}},{"type":"Feature","geometry":{"type":"Point","coordinates":[-0.3686,51.60942]},"properties":{"name":"Hatch End Rail Station","modes":["overground"]}},{"type":"Feature","geometry":{"type":"Point","coordinates":[-0.42319,51.46675]},"properties":{"name":"Hatton Cross Underground Station","modes":["tube"]}},{"type":"Feature","geometry":{"type":"Point","coordinates":[-0.42068,51.5031]},"properties":{"name":"Hayes & Harlington Rail Station","modes":["elizabeth-line","national-rail"]}},{"type":"Feature","geometry":{"type":"Point","coordinates":[-0.35722,51.60265]},"properties":{"name":"Headstone Lane Rail Station","modes":["overground"]}},{"type":"Feature","geometry":{"type":"Point","coordinates":[-0.44546,51.45827]},"properties":{"name":"Heathrow Terminal 4 Rail Station","modes":["elizabeth-line"]}},{"type":"Feature","geometry":{"type":"Point","coordinates":[-0.44577,51.45852]},"properties":{"name":"Heathrow Terminal 4 Underground Station","modes":["tube"]}},{"type":"Feature","geometry":{"type":"Point","coordinates":[-0.49059,51.47005]},"properties":{"name":"Heathrow Terminal 5 Rail Station","modes":["elizabeth-line","national-rail"]}},{"type":"Feature","geometry":{"type":"Point","coordinates":[-0.49056,51.47005]},"properties":{"name":"Heathrow Terminal 5 Underground Station","modes":["tube"]}},{"type":"Feature","geometry":{"type":"Point","coordinates":[-0.45479,51.47199]},"properties":{"name":"Heathrow Terminals 2 & 3 Rail Station","modes":["elizabeth-line","national-rail"]}},{"type":"Feature","geometry":{"type":"Point","coordinates":[-0.45226,51.47124]},"properties":{"name":"Heathrow Terminals 2 & 3 Underground Station","modes":["tube"]}},{"type":"Feature","geometry":{"type":"Point","coordinates":[-0.22642,51.5833]},"properties":{"name":"Hendon Central Underground Station","modes":["tube"]}},{"type":"Feature","geometry":{"type":"Point","coordinates":[-0.02142,51.50338]},"properties":{"name":"Heron Quays DLR Station","modes":["dlr"]}},{"type":"Feature","geometry":{"type":"Point","coordinates":[-0.1943,51.65054]},"properties":{"name":"High Barnet Underground Station","modes":["tube"]}},{"type":"Feature","geometry":{"type":"Point","coordinates":[-0.19279,51.50106]},"properties":{"name":"High Street Kensington Underground Station","modes":["tube"]}},{"type":"Feature","geometry":{"type":"Point","coordinates":[-0.00022,51.60835]},"properties":{"name":"Highams Park Rail Station","modes":["overground"]}},{"type":"Feature","geometry":{"type":"Point","coordinates":[-0.10376,51.54618]},"properties":{"name":"Highbury & Islington Rail Station","modes":["national-rail","overground"]}},{"type":"Feature","geometry":{"type":"Point","coordinates":[-0.10332,51.54635]},"properties":{"name":"Highbury & Islington Underground Station","modes":["tube"]}},{"type":"Feature","geometry":{"type":"Point","coordinates":[-0.14586,51.57753]},"properties":{"name":"Highgate Underground Station","modes":["tube"]}},{"type":"Feature","geometry":{"type":"Point","coordinates":[-0.44983,51.55371]},"properties":{"name":"Hillingdon Underground Station","modes":["tube"]}},{"type":"Feature","geometry":{"type":"Point","coordinates":[-0.12047,51.51758]},"properties":{"name":"Holborn Underground Station","modes":["tube"]}},{"type":"Feature","geometry":{"type":"Point","coordinates":[-0.20568,51.50714]},"properties":{"name":"Holland Park Underground Station","modes":["tube"]}},{"type":"Feature","geometry":{"type":"Point","coordinates":[-0.11324,51.5527]},"properties":{"name":"Holloway Road Underground Station","modes":["tube"]}},{"type":"Feature","geometry":{"type":"Point","coordinates":[-0.04236,51.54701]},"properties":{"name":"Homerton Rail Station","modes":["overground"]}},{"type":"Feature","geometry":{"type":"Point","coordinates":[-0.0455,51.44999]},"properties":{"name":"Honor Oak Park Rail Station","modes":["national-rail","overground"]}},{"type":"Feature","geometry":{"type":"Point","coordinates":[0.21912,51.55409]},"properties":{"name":"Hornchurch Underground Station","modes":["tube"]}},{"type":"Feature","geometry":{"type":"Point","coordinates":[-0.36658,51.47129]},"properties":{"name":"Hounslow Central Underground Station","modes":["tube"]}},{"type":"Feature","geometry":{"type":"Point","coordinates":[-0.35647,51.47321]},"properties":{"name":"Hounslow East Underground Station","modes":["tube"]}},{"type":"Feature","geometry":{"type":"Point","coordinates":[-0.38654,51.47347]},"properties":{"name":"Hounslow West Underground Station","modes":["tube"]}},{"type":"Feature","geometry":{"type":"Point","coordinates":[-0.07568,51.53151]},"properties":{"name":"Hoxton Rail Station","modes":["overground"]}},{"type":"Feature","geometry":{"type":"Point","coordinates":[-0.15244,51.50303]},"properties":{"name":"Hyde Park Corner Underground Station","modes":["tube"]}},{"type":"Feature","geometry":{"type":"Point","coordinates":[-0.442,51.56199]},"properties":{"name":"Ickenham Underground Station","modes":["tube"]}},{"type":"Feature","geometry":{"type":"Point","coordinates":[0.06968,51.55912]},"properties":{"name":"Ilford Rail Station","modes":["elizabeth-line","national-rail"]}},{"type":"Feature","geometry":{"type":"Point","coordinates":[-0.18282,51.47495]},"properties":{"name":"Imperial Wharf Rail Station","modes":["national-rail","overground"]}},{"type":"Feature","geometry":{"type":"Point","coordinates":[-0.01014,51.48781]},"properties":{"name":"Island Gardens DLR Station","modes":["dlr"]}},{"type":"Feature","geometry":{"type":"Point","coordinates":[-0.50673,51.5085]},"properties":{"name":"Iver Rail Station","modes":["elizabeth-line","national-rail"]}},{"type":"Feature","geometry":{"type":"Point","coordinates":[-0.10596,51.48834]},"properties":{"name":"Kennington Underground Station","modes":["tube"]}},{"type":"Feature","geometry":{"type":"Point","coordinates":[-0.22509,51.53054]},"properties":{"name":"Kensal Green Rail Station","modes":["overground"]}},{"type":"Feature","geometry":{"type":"Point","coordinates":[-0.22502,51.53054]},"properties":{"name":"Kensal Green Underground Station","modes":["tube"]}},{"type":"Feature","geometry":{"type":"Point","coordinates":[-0.21996,51.53455]},"properties":{"name":"Kensal Rise Rail Station","modes":["overground"]}},{"type":"Feature","geometry":{"type":"Point","coordinates":[-0.21036,51.4979]},"properties":{"name":"Kensington (Olympia) Rail Station","modes":["national-rail","overground"]}},{"type":"Feature","geometry":{"type":"Point","coordinates":[-0.21002,51.49762]},"properties":{"name":"Kensington (Olympia) Underground Station","modes":["tube"]}},{"type":"Feature","geometry":{"type":"Point","coordinates":[-0.14073,51.55031]},"properties":{"name":"Kentish Town Underground Station","modes":["tube"]}},{"type":"Feature","geometry":{"type":"Point","coordinates":[-0.14666,51.54655]},"properties":{"name":"Kentish Town West Rail Station","modes":["overground"]}},{"type":"Feature","geometry":{"type":"Point","coordinates":[-0.31698,51.5818]},"properties":{"name":"Kenton Rail Station","modes":["overground"]}},{"type":"Feature","geometry":{"type":"Point","coordinates":[-0.31691,51.58176]},"properties":{"name":"Kenton Underground Station","modes":["tube"]}},{"type":"Feature","geometry":{"type":"Point","coordinates":[-0.28505,51.47707]},"properties":{"name":"Kew Gardens Rail Station","modes":["overground"]}},{"type":"Feature","geometry":{"type":"Point","coordinates":[-0.28524,51.47706]},"properties":{"name":"Kew Gardens Underground Station","modes":["tube"]}},{"type":"Feature","geometry":{"type":"Point","coordinates":[-0.19224,51.53728]},"properties":{"name":"Kilburn High Road Rail Station","modes":["overground"]}},{"type":"Feature","geometry":{"type":"Point","coordinates":[-0.19423,51.53498]},"properties":{"name":"Kilburn Park Underground Station","modes":["tube"]}},{"type":"Feature","geometry":{"type":"Point","coordinates":[-0.20425,51.54718]},"properties":{"name":"Kilburn Underground Station","modes":["tube"]}},{"type":"Feature","geometry":{"type":"Point","coordinates":[0.06262,51.502]},"properties":{"name":"King George V DLR Station","modes":["dlr"]}},{"type":"Feature","geometry":{"type":"Point","coordinates":[-0.01997,51.34508]},"properties":{"name":"King Henry's Drive Tram Stop","modes":["tram"]}},{"type":"Feature","geometry":{"type":"Point","coordinates":[-0.12319,51.53066]},"properties":{"name":"King's Cross St. Pancras Underground Station","modes":["tube"]}},{"type":"Feature","geometry":{"type":"Point","coordinates":[-0.27879,51.58485]},"properties":{"name":"Kingsbury Underground Station","modes":["tube"]}},{"type":"Feature","geometry":{"type":"Point","coordinates":[-0.16051,51.50167]},"properties":{"name":"Knightsbridge Underground Station","modes":["bus","tube"]}},{"type":"Feature","geometry":{"type":"Point","coordinates":[-0.21039,51.51745]},"properties":{"name":"Ladbroke Grove Underground Station","modes":["tube"]}},{"type":"Feature","geometry":{"type":"Point","coordinates":[-0.11231,51.49881]},"properties":{"name":"Lambeth North Underground Station","modes":["tube"]}},{"type":"Feature","geometry":{"type":"Point","coordinates":[-0.17549,51.51172]},"properties":{"name":"Lancaster Gate Underground Station","modes":["tube"]}},{"type":"Feature","geometry":{"type":"Point","coordinates":[-0.01415,51.51517]},"properties":{"name":"Langdon Park DLR Station","modes":["dlr"]}},{"type":"Feature","geometry":{"type":"Point","coordinates":[-0.2178,51.51339]},"properties":{"name":"Latimer Road Underground Station","modes":["tube"]}},{"type":"Feature","geometry":{"type":"Point","coordinates":[-0.085,51.3752]},"properties":{"name":"Lebanon Road Tram Stop","modes":["tram"]}},{"type":"Feature","geometry":{"type":"Point","coordinates":[-0.12843,51.51139]},"properties":{"name":"Leicester Square Underground Station","modes":["tube"]}},{"type":"Feature","geometry":{"type":"Point","coordinates":[-0.01287,51.46466]},"properties":{"name":"Lewisham DLR Station","modes":["dlr"]}},{"type":"Feature","geometry":{"type":"Point","coordinates":[-0.00805,51.56972]},"properties":{"name":"Leyton Midland Road Rail Station","modes":["overground"]}},{"type":"Feature","geometry":{"type":"Point","coordinates":[-0.00552,51.55659]},"properties":{"name":"Leyton Underground Station","modes":["tube"]}},{"type":"Feature","geometry":{"type":"Point","coordinates":[0.00842,51.56355]},"properties":{"name":"Leytonstone High Road Rail Station","modes":["overground"]}},{"type":"Feature","geometry":{"type":"Point","coordinates":[0.00819,51.56832]},"properties":{"name":"Leytonstone Underground Station","modes":["tube"]}},{"type":"Feature","geometry":{"type":"Point","coordinates":[-0.03981,51.51239]},"properties":{"name":"Limehouse DLR Station","modes":["dlr"]}},{"type":"Feature","geometry":{"type":"Point","coordinates":[-0.08204,51.51772]},"properties":{"name":"Liverpool Street","modes":["elizabeth-line"]}},{"type":"Feature","geometry":{"type":"Point","coordinates":[-0.08318,51.51737]},"properties":{"name":"Liverpool Street Underground Station","modes":["tube"]}},{"type":"Feature","geometry":{"type":"Point","coordinates":[-0.08077,51.36428]},"properties":{"name":"Lloyd Park Tram Stop","modes":["tram"]}},{"type":"Feature","geometry":{"type":"Point","coordinates":[-0.08887,51.50572]},"properties":{"name":"London Bridge Underground Station","modes":["tube"]}},{"type":"Feature","geometry":{"type":"Point","coordinates":[0.04874,51.50342]},"properties":{"name":"London City Airport DLR Station","modes":["dlr"]}},{"type":"Feature","geometry":{"type":"Point","coordinates":[-0.13392,51.52814]},"properties":{"name":"London Euston Rail Station","modes":["national-rail","overground"]}},{"type":"Feature","geometry":{"type":"Point","coordinates":[-0.05775,51.54115]},"properties":{"name":"London Fields Rail Station","modes":["national-rail","overground"]}},{"type":"Feature","geometry":{"type":"Point","coordinates":[-0.08143,51.51799]},"properties":{"name":"London Liverpool Street Rail Station","modes":["elizabeth-line","national-rail","overground"]}},{"type":"Feature","geometry":{"type":"Point","coordinates":[-0.17617,51.516]},"properties":{"name":"London Paddington Rail Station","modes":["elizabeth-line","national-rail"]}},{"type":"Feature","geometry":{"type":"Point","coordinates":[0.05548,51.64144]},"properties":{"name":"Loughton Underground Station","modes":["bus","tube"]}},{"type":"Feature","geometry":{"type":"Point","coordinates":[-0.18576,51.52978]},"properties":{"name":"Maida Vale Underground Station","modes":["tube"]}},{"type":"Feature","geometry":{"type":"Point","coordinates":[-0.09612,51.57074]},"properties":{"name":"Manor House Underground Station","modes":["tube"]}},{"type":"Feature","geometry":{"type":"Point","coordinates":[0.04634,51.55248]},"properties":{"name":"Manor Park Rail Station","modes":["elizabeth-line"]}},{"type":"Feature","geometry":{"type":"Point","coordinates":[-0.09401,51.51212]},"properties":{"name":"Mansion House Underground Station","modes":["tube"]}},{"type":"Feature","geometry":{"type":"Point","coordinates":[-0.15895,51.51342]},"properties":{"name":"Marble Arch Underground Station","modes":["tube"]}},{"type":"Feature","geometry":{"type":"Point","coordinates":[0.00581,51.54608]},"properties":{"name":"Maryland Rail Station","modes":["elizabeth-line"]}},{"type":"Feature","geometry":{"type":"Point","coordinates":[-0.16321,51.52232]},"properties":{"name":"Marylebone Underground Station","modes":["tube"]}},{"type":"Feature","geometry":{"type":"Point","coordinates":[-0.20122,51.41359]},"properties":{"name":"Merton Park Tram Stop","modes":["tram"]}},{"type":"Feature","geometry":{"type":"Point","coordinates":[-0.03364,51.52512]},"properties":{"name":"Mile End Underground Station","modes":["tube"]}},{"type":"Feature","geometry":{"type":"Point","coordinates":[-0.20999,51.60823]},"properties":{"name":"Mill Hill East Underground Station","modes":["tube"]}},{"type":"Feature","geometry":{"type":"Point","coordinates":[-0.15826,51.39287]},"properties":{"name":"Mitcham Junction Tram Stop","modes":["tram"]}},{"type":"Feature","geometry":{"type":"Point","coordinates":[-0.1709,51.39749]},"properties":{"name":"Mitcham Tram Stop","modes":["tram"]}},{"type":"Feature","geometry":{"type":"Point","coordinates":[-0.08597,51.5107]},"properties":{"name":"Monument Underground Station","modes":["tube"]}},{"type":"Feature","geometry":{"type":"Point","coordinates":[-0.43245,51.62985]},"properties":{"name":"Moor Park Underground Station","modes":["tube"]}},{"type":"Feature","geometry":{"type":"Point","coordinates":[-0.08832,51.51818]},"properties":{"name":"Moorgate Underground Station","modes":["tube"]}},{"type":"Feature","geometry":{"type":"Point","coordinates":[-0.19283,51.40887]},"properties":{"name":"Morden Road Tram Stop","modes":["tram"]}},{"type":"Feature","geometry":{"type":"Point","coordinates":[-0.19484,51.40214]},"properties":{"name":"Morden Underground Station","modes":["tube"]}},{"type":"Feature","geometry":{"type":"Point","coordinates":[-0.13879,51.53468]},"properties":{"name":"Mornington Crescent Underground Station","modes":["tube"]}},{"type":"Feature","geometry":{"type":"Point","coordinates":[-0.01474,51.4907]},"properties":{"name":"Mudchute DLR Station","modes":["dlr"]}},{"type":"Feature","geometry":{"type":"Point","coordinates":[-0.24984,51.55399]},"properties":{"name":"Neasden Underground Station","modes":["tube"]}},{"type":"Feature","geometry":{"type":"Point","coordinates":[-0.01741,51.34259]},"properties":{"name":"New Addington Tram Stop","modes":["tram"]}},{"type":"Feature","geometry":{"type":"Point","coordinates":[-0.03244,51.47634]},"properties":{"name":"New Cross ELL Rail Station","modes":["national-rail","overground"]}},{"type":"Feature","geometry":{"type":"Point","coordinates":[-0.0404,51.47513]},"properties":{"name":"New Cross Gate Rail Station","modes":["national-rail","overground"]}},{"type":"Feature","geometry":{"type":"Point","coordinates":[0.09,51.57573]},"properties":{"name":"Newbury Park Underground Station","modes":["tube"]}},{"type":"Feature","geometry":{"type":"Point","coordinates":[-0.12848,51.47991]},"properties":{"name":"Nine Elms Underground Station","modes":["tube"]}},{"type":"Feature","geometry":{"type":"Point","coordinates":[-0.25976,51.52352]},"properties":{"name":"North Acton Underground Station","modes":["bus","tube"]}},{"type":"Feature","geometry":{"type":"Point","coordinates":[-0.28887,51.5175]},"properties":{"name":"North Ealing Underground Station","modes":["tube"]}},{"type":"Feature","geometry":{"type":"Point","coordinates":[0.00429,51.50047]},"properties":{"name":"North Greenwich Underground Station","modes":["tube"]}},{"type":"Feature","geometry":{"type":"Point","coordinates":[-0.36241,51.58487]},"properties":{"name":"North Harrow Underground Station","modes":["tube"]}},{"type":"Feature","geometry":{"type":"Point","coordinates":[-0.30398,51.5626]},"properties":{"name":"North Wembley Rail Station","modes":["overground"]}},{"type":"Feature","geometry":{"type":"Point","coordinates":[-0.304,51.56255]},"properties":{"name":"North Wembley Underground Station","modes":["tube"]}},{"type":"Feature","geometry":{"type":"Point","coordinates":[-0.31472,51.49932]},"properties":{"name":"Northfields Underground Station","modes":["tube"]}},{"type":"Feature","geometry":{"type":"Point","coordinates":[-0.3687,51.54824]},"properties":{"name":"Northolt Underground Station","modes":["tube"]}},{"type":"Feature","geometry":{"type":"Point","coordinates":[-0.31806,51.57848]},"properties":{"name":"Northwick Park Underground Station","modes":["tube"]}},{"type":"Feature","geometry":{"type":"Point","coordinates":[-0.40946,51.60057]},"properties":{"name":"Northwood Hills Underground Station","modes":["tube"]}},{"type":"Feature","geometry":{"type":"Point","coordinates":[-0.42383,51.61105]},"properties":{"name":"Northwood Underground Station","modes":["tube"]}},{"type":"Feature","geometry":{"type":"Point","coordinates":[-0.07522,51.39702]},"properties":{"name":"Norwood Junction Rail Station","modes":["national-rail","overground"]}},{"type":"Feature","geometry":{"type":"Point","coordinates":[-0.1961,51.50913]},"properties":{"name":"Notting Hill Gate Underground Station","modes":["tube"]}},{"type":"Feature","geometry":{"type":"Point","coordinates":[-0.13218,51.64773]},"properties":{"name":"Oakwood Underground Station","modes":["tube"]}},{"type":"Feature","geometry":{"type":"Point","coordinates":[-0.08777,51.52586]},"properties":{"name":"Old Street Underground Station","modes":["tube"]}},{"type":"Feature","geometry":{"type":"Point","coordinates":[-0.35222,51.48127]},"properties":{"name":"Osterley Underground Station","modes":["tube"]}},{"type":"Feature","geometry":{"type":"Point","coordinates":[-0.11244,51.48185]},"properties":{"name":"Oval Underground Station","modes":["tube"]}},{"type":"Feature","geometry":{"type":"Point","coordinates":[-0.1419,51.51522]},"properties":{"name":"Oxford Circus Underground Station","modes":["tube"]}},{"type":"Feature","geometry":{"type":"Point","coordinates":[-0.17711,51.51645]},"properties":{"name":"Paddington","modes":["elizabeth-line"]}},{"type":"Feature","geometry":{"type":"Point","coordinates":[-0.17831,51.51819]},"properties":{"name":"Paddington (H&C Line)-Underground","modes":["tube"]}},{"type":"Feature","geometry":{"type":"Point","coordinates":[-0.17569,51.51658]},"properties":{"name":"Paddington Underground Station","modes":["tube"]}},{"type":"Feature","geometry":{"type":"Point","coordinates":[-0.28434,51.52712]},"properties":{"name":"Park Royal Underground Station","modes":["tube"]}},{"type":"Feature","geometry":{"type":"Point","coordinates":[-0.20117,51.47528]},"properties":{"name":"Parsons Green Underground Station","modes":["tube"]}},{"type":"Feature","geometry":{"type":"Point","coordinates":[-0.06941,51.47003]},"properties":{"name":"Peckham Rye Rail Station","modes":["national-rail","overground"]}},{"type":"Feature","geometry":{"type":"Point","coordinates":[-0.06084,51.41756]},"properties":{"name":"Penge West Rail Station","modes":["national-rail","overground"]}},{"type":"Feature","geometry":{"type":"Point","coordinates":[-0.32345,51.53672]},"properties":{"name":"Perivale Underground Station","modes":["tube"]}},{"type":"Feature","geometry":{"type":"Point","coordinates":[-0.18164,51.40398]},"properties":{"name":"Phipps Bridge Tram Stop","modes":["tram"]}},{"type":"Feature","geometry":{"type":"Point","coordinates":[-0.1338,51.51005]},"properties":{"name":"Piccadilly Circus Underground Station","modes":["tube"]}},{"type":"Feature","geometry":{"type":"Point","coordinates":[-0.13376,51.4891]},"properties":{"name":"Pimlico Underground Station","modes":["tube"]}},{"type":"Feature","geometry":{"type":"Point","coordinates":[-0.38116,51.5929]},"properties":{"name":"Pinner Underground Station","modes":["tube"]}},{"type":"Feature","geometry":{"type":"Point","coordinates":[0.01745,51.53134]},"properties":{"name":"Plaistow Underground Station","modes":["tube"]}},{"type":"Feature","geometry":{"type":"Point","coordinates":[0.03211,51.50221]},"properties":{"name":"Pontoon Dock DLR Station","modes":["bus","dlr"]}},{"type":"Feature","geometry":{"type":"Point","coordinates":[-0.01738,51.50774]},"properties":{"name":"Poplar DLR Station","modes":["dlr"]}},{"type":"Feature","geometry":{"type":"Point","coordinates":[-0.29511,51.57197]},"properties":{"name":"Preston Road Underground Station","modes":["tube"]}},{"type":"Feature","geometry":{"type":"Point","coordinates":[0.03416,51.50926]},"properties":{"name":"Prince Regent DLR Station","modes":["dlr"]}},{"type":"Feature","geometry":{"type":"Point","coordinates":[-0.01276,51.5343]},"properties":{"name":"Pudding Mill Lane DLR Station","modes":["dlr"]}},{"type":"Feature","geometry":{"type":"Point","coordinates":[-0.20873,51.46826]},"properties":{"name":"Putney Bridge Underground Station","modes":["tube"]}},{"type":"Feature","geometry":{"type":"Point","coordinates":[-0.20457,51.53416]},"properties":{"name":"Queen's Park Underground Station","modes":["tube"]}},{"type":"Feature","geometry":{"type":"Point","coordinates":[-0.20499,51.53397]},"properties":{"name":"Queens Park (London) Rail Station","modes":["overground"]}},{"type":"Feature","geometry":{"type":"Point","coordinates":[-0.05731,51.47357]},"properties":{"name":"Queens Road Peckham Rail Station","modes":["national-rail","overground"]}},{"type":"Feature","geometry":{"type":"Point","coordinates":[-0.28622,51.59419]},"properties":{"name":"Queensbury Underground Station","modes":["tube"]}},{"type":"Feature","geometry":{"type":"Point","coordinates":[-0.18715,51.51031]},"properties":{"name":"Queensway Underground Station","modes":["tube"]}},{"type":"Feature","geometry":{"type":"Point","coordinates":[-0.23588,51.49412]},"properties":{"name":"Ravenscourt Park Underground Station","modes":["tube"]}},{"type":"Feature","geometry":{"type":"Point","coordinates":[-0.37113,51.57515]},"properties":{"name":"Rayners Lane Underground Station","modes":["tube"]}},{"type":"Feature","geometry":{"type":"Point","coordinates":[-0.06827,51.5585]},"properties":{"name":"Rectory Road Rail Station","modes":["national-rail","overground"]}},{"type":"Feature","geometry":{"type":"Point","coordinates":[0.04536,51.57624]},"properties":{"name":"Redbridge Underground Station","modes":["tube"]}},{"type":"Feature","geometry":{"type":"Point","coordinates":[-0.10641,51.37528]},"properties":{"name":"Reeves Corner Tram Stop","modes":["tram"]}},{"type":"Feature","geometry":{"type":"Point","coordinates":[-0.14644,51.52334]},"properties":{"name":"Regent's Park Underground Station","modes":["tube"]}},{"type":"Feature","geometry":{"type":"Point","coordinates":[-0.30156,51.46306]},"properties":{"name":"Richmond (London) Rail Station","modes":["national-rail","overground"]}},{"type":"Feature","geometry":{"type":"Point","coordinates":[-0.30134,51.46324]},"properties":{"name":"Richmond Underground Station","modes":["tube"]}},{"type":"Feature","geometry":{"type":"Point","coordinates":[-0.4737,51.64021]},"properties":{"name":"Rickmansworth Underground Station","modes":["tube"]}},{"type":"Feature","geometry":{"type":"Point","coordinates":[0.04365,51.6172]},"properties":{"name":"Roding Valley Underground Station","modes":["tube"]}},{"type":"Feature","geometry":{"type":"Point","coordinates":[0.18324,51.57483]},"properties":{"name":"Romford Rail Station","modes":["elizabeth-line","national-rail","overground"]}},{"type":"Feature","geometry":{"type":"Point","coordinates":[-0.05205,51.50082]},"properties":{"name":"Rotherhithe Rail Station","modes":["overground"]}},{"type":"Feature","geometry":{"type":"Point","coordinates":[0.04593,51.50836]},"properties":{"name":"Royal Albert DLR Station","modes":["dlr"]}},{"type":"Feature","geometry":{"type":"Point","coordinates":[-0.18875,51.51911]},"properties":{"name":"Royal Oak Underground Station","modes":["tube"]}},{"type":"Feature","geometry":{"type":"Point","coordinates":[0.0185,51.50934]},"properties":{"name":"Royal Victoria DLR Station","modes":["dlr"]}},{"type":"Feature","geometry":{"type":"Point","coordinates":[-0.41071,51.56074]},"properties":{"name":"Ruislip Gardens Underground Station","modes":["tube"]}},{"type":"Feature","geometry":{"type":"Point","coordinates":[-0.41297,51.5732]},"properties":{"name":"Ruislip Manor Underground Station","modes":["tube"]}},{"type":"Feature","geometry":{"type":"Point","coordinates":[-0.4219,51.57135]},"properties":{"name":"Ruislip Underground Station","modes":["tube"]}},{"type":"Feature","geometry":{"type":"Point","coordinates":[-0.12429,51.52307]},"properties":{"name":"Russell Square Underground Station","modes":["tube"]}},{"type":"Feature","geometry":{"type":"Point","coordinates":[-0.07804,51.37502]},"properties":{"name":"Sandilands Tram Stop","modes":["tram"]}},{"type":"Feature","geometry":{"type":"Point","coordinates":[0.0971,51.56403]},"properties":{"name":"Seven Kings Rail Station","modes":["elizabeth-line","national-rail"]}},{"type":"Feature","geometry":{"type":"Point","coordinates":[-0.07527,51.58227]},"properties":{"name":"Seven Sisters Rail Station","modes":["national-rail","overground"]}},{"type":"Feature","geometry":{"type":"Point","coordinates":[-0.07258,51.58333]},"properties":{"name":"Seven Sisters Underground Station","modes":["tube"]}},{"type":"Feature","geometry":{"type":"Point","coordinates":[-0.05664,51.51169]},"properties":{"name":"Shadwell DLR Station","modes":["dlr"]}},{"type":"Feature","geometry":{"type":"Point","coordinates":[-0.05693,51.51128]},"properties":{"name":"Shadwell Rail Station","modes":["overground"]}},{"type":"Feature","geometry":{"type":"Point","coordinates":[0.32985,51.63088]},"properties":{"name":"Shenfield Rail Station","modes":["elizabeth-line","national-rail"]}},{"type":"Feature","geometry":{"type":"Point","coordinates":[-0.21881,51.50438]},"properties":{"name":"Shepherd's Bush (Central) Underground Station","modes":["tube"]}},{"type":"Feature","geometry":{"type":"Point","coordinates":[-0.22637,51.50558]},"properties":{"name":"Shepherd's Bush Market Underground Station","modes":["tube"]}},{"type":"Feature","geometry":{"type":"Point","coordinates":[-0.21765,51.50529]},"properties":{"name":"Shepherds Bush Rail Station","modes":["national-rail","overground"]}},{"type":"Feature","geometry":{"type":"Point","coordinates":[-0.07525,51.52338]},"properties":{"name":"Shoreditch High Street Rail Station","modes":["overground"]}},{"type":"Feature","geometry":{"type":"Point","coordinates":[-0.06724,51.61469]},"properties":{"name":"Silver Street Rail Station","modes":["national-rail","overground"]}},{"type":"Feature","geometry":{"type":"Point","coordinates":[-0.15638,51.49227]},"properties":{"name":"Sloane Square Underground Station","modes":["tube"]}},{"type":"Feature","geometry":{"type":"Point","coordinates":[0.02144,51.58068]},"properties":{"name":"Snaresbrook Underground Station","modes":["tube"]}},{"type":"Feature","geometry":{"type":"Point","coordinates":[-0.27016,51.4997]},"properties":{"name":"South Acton Rail Station","modes":["overground"]}},{"type":"Feature","geometry":{"type":"Point","coordinates":[-0.30742,51.501]},"properties":{"name":"South Ealing Underground Station","modes":["tube"]}},{"type":"Feature","geometry":{"type":"Point","coordinates":[-0.17888,51.54143]},"properties":{"name":"South Hampstead Rail Station","modes":["overground"]}},{"type":"Feature","geometry":{"type":"Point","coordinates":[-0.35249,51.56489]},"properties":{"name":"South Harrow Underground Station","modes":["tube"]}},{"type":"Feature","geometry":{"type":"Point","coordinates":[-0.17414,51.49409]},"properties":{"name":"South Kensington Underground Station","modes":["tube"]}},{"type":"Feature","geometry":{"type":"Point","coordinates":[-0.30846,51.57021]},"properties":{"name":"South Kenton Rail Station","modes":["overground"]}},{"type":"Feature","geometry":{"type":"Point","coordinates":[-0.30843,51.57023]},"properties":{"name":"South Kenton Underground Station","modes":["tube"]}},{"type":"Feature","geometry":{"type":"Point","coordinates":[-0.01597,51.50005]},"properties":{"name":"South Quay DLR Station","modes":["dlr"]}},{"type":"Feature","geometry":{"type":"Point","coordinates":[-0.39892,51.55685]},"properties":{"name":"South Ruislip Underground Station","modes":["tube"]}},{"type":"Feature","geometry":{"type":"Point","coordinates":[-0.0721,51.58037]},"properties":{"name":"South Tottenham Rail Station","modes":["overground"]}},{"type":"Feature","geometry":{"type":"Point","coordinates":[-0.19201,51.41531]},"properties":{"name":"South Wimbledon Underground Station","modes":["tube"]}},{"type":"Feature","geometry":{"type":"Point","coordinates":[0.02734,51.59191]},"properties":{"name":"South Woodford Underground Station","modes":["tube"]}},{"type":"Feature","geometry":{"type":"Point","coordinates":[-0.37861,51.50596]},"properties":{"name":"Southall Rail Station","modes":["elizabeth-line","national-rail"]}},{"type":"Feature","geometry":{"type":"Point","coordinates":[-0.05244,51.6487]},"properties":{"name":"Southbury Rail Station","modes":["national-rail","overground"]}},{"type":"Feature","geometry":{"type":"Point","coordinates":[-0.2066,51.44507]},"properties":{"name":"Southfields Underground Station","modes":["tube"]}},{"type":"Feature","geometry":{"type":"Point","coordinates":[-0.12782,51.63231]},"properties":{"name":"Southgate Underground Station","modes":["tube"]}},{"type":"Feature","geometry":{"type":"Point","coordinates":[-0.10533,51.50427]},"properties":{"name":"Southwark Underground Station","modes":["tube"]}},{"type":"Feature","geometry":{"type":"Point","coordinates":[-0.03292,51.58098]},"properties":{"name":"St James Street (London) Rail Station","modes":["overground"]}},{"type":"Feature","geometry":{"type":"Point","coordinates":[-0.13361,51.49954]},"properties":{"name":"St. James's Park Underground Station","modes":["tube"]}},{"type":"Feature","geometry":{"type":"Point","coordinates":[-0.17395,51.53452]},"properties":{"name":"St. John's Wood Underground Station","modes":["tube"]}},{"type":"Feature","geometry":{"type":"Point","coordinates":[-0.09757,51.51494]},"properties":{"name":"St. Paul's Underground Station","modes":["tube"]}},{"type":"Feature","geometry":{"type":"Point","coordinates":[-0.2457,51.49492]},"properties":{"name":"Stamford Brook Underground Station","modes":["tube"]}},{"type":"Feature","geometry":{"type":"Point","coordinates":[-0.07668,51.57447]},"properties":{"name":"Stamford Hill Rail Station","modes":["national-rail","overground"]}},{"type":"Feature","geometry":{"type":"Point","coordinates":[-0.30327,51.61984]},"properties":{"name":"Stanmore Underground Station","modes":["tube"]}},{"type":"Feature","geometry":{"type":"Point","coordinates":[0.00416,51.52079]},"properties":{"name":"Star Lane DLR Station","modes":["bus","dlr"]}},{"type":"Feature","geometry":{"type":"Point","coordinates":[-0.0466,51.52186]},"properties":{"name":"Stepney Green Underground Station","modes":["tube"]}},{"type":"Feature","geometry":{"type":"Point","coordinates":[-0.12264,51.47218]},"properties":{"name":"Stockwell Underground Station","modes":["tube"]}},{"type":"Feature","geometry":{"type":"Point","coordinates":[-0.07289,51.56523]},"properties":{"name":"Stoke Newington Rail Station","modes":["national-rail","overground"]}},{"type":"Feature","geometry":{"type":"Point","coordinates":[-0.27583,51.54411]},"properties":{"name":"Stonebridge Park Rail Station","modes":["overground"]}},{"type":"Feature","geometry":{"type":"Point","coordinates":[-0.27589,51.54396]},"properties":{"name":"Stonebridge Park Underground Station","modes":["tube"]}},{"type":"Feature","geometry":{"type":"Point","coordinates":[-0.0034,51.54189]},"properties":{"name":"Stratford (London) Rail Station","modes":["elizabeth-line","national-rail","overground"]}},{"type":"Feature","geometry":{"type":"Point","coordinates":[-0.00329,51.54176]},"properties":{"name":"Stratford DLR Station","modes":["dlr"]}},{"type":"Feature","geometry":{"type":"Point","coordinates":[-0.00108,51.5382]},"properties":{"name":"Stratford High Street DLR Station","modes":["dlr"]}},{"type":"Feature","geometry":{"type":"Point","coordinates":[-0.00964,51.54527]},"properties":{"name":"Stratford International DLR Station","modes":["dlr"]}},{"type":"Feature","geometry":{"type":"Point","coordinates":[-0.00346,51.54181]},"properties":{"name":"Stratford Underground Station","modes":["tube"]}},{"type":"Feature","geometry":{"type":"Point","coordinates":[-0.33643,51.55695]},"properties":{"name":"Sudbury Hill Underground Station","modes":["tube"]}},{"type":"Feature","geometry":{"type":"Point","coordinates":[-0.31574,51.55082]},"properties":{"name":"Sudbury Town Underground Station","modes":["tube"]}},{"type":"Feature","geometry":{"type":"Point","coordinates":[-0.04752,51.4932]},"properties":{"name":"Surrey Quays Rail Station","modes":["overground"]}},{"type":"Feature","geometry":{"type":"Point","coordinates":[-0.17489,51.54368]},"properties":{"name":"Swiss Cottage Underground Station","modes":["tube"]}},{"type":"Feature","geometry":{"type":"Point","coordinates":[-0.05424,51.42725]},"properties":{"name":"Sydenham Rail Station","modes":["national-rail","overground"]}},{"type":"Feature","geometry":{"type":"Point","coordinates":[-0.11426,51.51101]},"properties":{"name":"Temple Underground Station","modes":["tube"]}},{"type":"Feature","geometry":{"type":"Point","coordinates":[-0.12904,51.3857]},"properties":{"name":"Therapia Lane Tram Stop","modes":["tram"]}},{"type":"Feature","geometry":{"type":"Point","coordinates":[0.10308,51.67176]},"properties":{"name":"Theydon Bois Underground Station","modes":["tube"]}},{"type":"Feature","geometry":{"type":"Point","coordinates":[-0.15974,51.43568]},"properties":{"name":"Tooting Bec Underground Station","modes":["tube"]}},{"type":"Feature","geometry":{"type":"Point","coordinates":[-0.16837,51.42763]},"properties":{"name":"Tooting Broadway Underground Station","modes":["tube"]}},{"type":"Feature","geometry":{"type":"Point","coordinates":[-0.13044,51.5157]},"properties":{"name":"Tottenham Court Road","modes":["elizabeth-line"]}},{"type":"Feature","geometry":{"type":"Point","coordinates":[-0.13041,51.51643]},"properties":{"name":"Tottenham Court Road Underground Station","modes":["tube"]}},{"type":"Feature","geometry":{"type":"Point","coordinates":[-0.06024,51.58811]},"properties":{"name":"Tottenham Hale Underground Station","modes":["tube"]}},{"type":"Feature","geometry":{"type":"Point","coordinates":[-0.17921,51.6306]},"properties":{"name":"Totteridge & Whetstone Underground Station","modes":["tube"]}},{"type":"Feature","geometry":{"type":"Point","coordinates":[-0.07482,51.51062]},"properties":{"name":"Tower Gateway DLR Station","modes":["dlr"]}},{"type":"Feature","geometry":{"type":"Point","coordinates":[-0.07655,51.50997]},"properties":{"name":"Tower Hill Underground Station","modes":["tube"]}},{"type":"Feature","geometry":{"type":"Point","coordinates":[-0.13843,51.55682]},"properties":{"name":"Tufnell Park Underground Station","modes":["tube"]}},{"type":"Feature","geometry":{"type":"Point","coordinates":[-0.04722,51.67263]},"properties":{"name":"Turkey Street Rail Station","modes":["national-rail","overground"]}},{"type":"Feature","geometry":{"type":"Point","coordinates":[-0.25455,51.49515]},"properties":{"name":"Turnham Green Underground Station","modes":["tube"]}},{"type":"Feature","geometry":{"type":"Point","coordinates":[-0.10295,51.59027]},"properties":{"name":"Turnpike Lane Underground Station","modes":["tube"]}},{"type":"Feature","geometry":{"type":"Point","coordinates":[0.23581,51.55856]},"properties":{"name":"Upminster Bridge Underground Station","modes":["tube"]}},{"type":"Feature","geometry":{"type":"Point","coordinates":[0.25088,51.55902]},"properties":{"name":"Upminster Rail Station","modes":["national-rail","overground"]}},{"type":"Feature","geometry":{"type":"Point","coordinates":[0.25088,51.55906]},"properties":{"name":"Upminster Underground Station","modes":["tube"]}},{"type":"Feature","geometry":{"type":"Point","coordinates":[0.10153,51.53837]},"properties":{"name":"Upney Underground Station","modes":["tube"]}},{"type":"Feature","geometry":{"type":"Point","coordinates":[-0.12951,51.56363]},"properties":{"name":"Upper Holloway Rail Station","modes":["overground"]}},{"type":"Feature","geometry":{"type":"Point","coordinates":[0.03526,51.53534]},"properties":{"name":"Upton Park Underground Station","modes":["tube"]}},{"type":"Feature","geometry":{"type":"Point","coordinates":[-0.47795,51.54657]},"properties":{"name":"Uxbridge Underground Station","modes":["tube"]}},{"type":"Feature","geometry":{"type":"Point","coordinates":[-0.1242,51.48574]},"properties":{"name":"Vauxhall Underground Station","modes":["tube"]}},{"type":"Feature","geometry":{"type":"Point","coordinates":[-0.1431,51.49636]},"properties":{"name":"Victoria Underground Station","modes":["tube"]}},{"type":"Feature","geometry":{"type":"Point","coordinates":[-0.11802,51.37708]},"properties":{"name":"Waddon Marsh Tram Stop","modes":["tram"]}},{"type":"Feature","geometry":{"type":"Point","coordinates":[-0.01981,51.58292]},"properties":{"name":"Walthamstow Central Rail Station","modes":["overground"]}},{"type":"Feature","geometry":{"type":"Point","coordinates":[-0.01988,51.58297]},"properties":{"name":"Walthamstow Central Underground Station","modes":["tube"]}},{"type":"Feature","geometry":{"type":"Point","coordinates":[-0.02385,51.5815]},"properties":{"name":"Walthamstow Queens Road Rail Station","modes":["overground"]}},{"type":"Feature","geometry":{"type":"Point","coordinates":[-0.11328,51.3734]},"properties":{"name":"Wandle Park Tram Stop","modes":["tram"]}},{"type":"Feature","geometry":{"type":"Point","coordinates":[-0.13852,51.47022]},"properties":{"name":"Wandsworth Road Rail Station","modes":["overground"]}},{"type":"Feature","geometry":{"type":"Point","coordinates":[0.02621,51.55169]},"properties":{"name":"Wanstead Park Rail Station","modes":["overground"]}},{"type":"Feature","geometry":{"type":"Point","coordinates":[0.02853,51.5755]},"properties":{"name":"Wanstead Underground Station","modes":["tube"]}},{"type":"Feature","geometry":{"type":"Point","coordinates":[-0.05593,51.50439]},"properties":{"name":"Wapping Rail Station","modes":["overground"]}},{"type":"Feature","geometry":{"type":"Point","coordinates":[-0.13832,51.52495]},"properties":{"name":"Warren Street Underground Station","modes":["tube"]}},{"type":"Feature","geometry":{"type":"Point","coordinates":[-0.18378,51.52326]},"properties":{"name":"Warwick Avenue Underground Station","modes":["tube"]}},{"type":"Feature","geometry":{"type":"Point","coordinates":[-0.11478,51.5033]},"properties":{"name":"Waterloo Underground Station","modes":["tube"]}},{"type":"Feature","geometry":{"type":"Point","coordinates":[-0.39171,51.65266]},"properties":{"name":"Watford High Street Rail Station","modes":["overground"]}},{"type":"Feature","geometry":{"type":"Point","coordinates":[-0.39593,51.66391]},"properties":{"name":"Watford Junction Rail Station","modes":["national-rail","overground"]}},{"type":"Feature","geometry":{"type":"Point","coordinates":[-0.39652,51.66353]},"properties":{"name":"Watford Junction Rail Station","modes":["overground"]}},{"type":"Feature","geometry":{"type":"Point","coordinates":[-0.41738,51.65745]},"properties":{"name":"Watford Underground Station","modes":["tube"]}},{"type":"Feature","geometry":{"type":"Point","coordinates":[-0.09755,51.37537]},"properties":{"name":"Wellesley Road Tram Stop","modes":["tram"]}},{"type":"Feature","geometry":{"type":"Point","coordinates":[-0.29643,51.55233]},"properties":{"name":"Wembley Central Rail Station","modes":["national-rail","overground"]}},{"type":"Feature","geometry":{"type":"Point","coordinates":[-0.29685,51.5523]},"properties":{"name":"Wembley Central Underground Station","modes":["tube"]}},{"type":"Feature","geometry":{"type":"Point","coordinates":[-0.27926,51.5632]},"properties":{"name":"Wembley Park Underground Station","modes":["tube"]}},{"type":"Feature","geometry":{"type":"Point","coordinates":[-0.28098,51.518]},"properties":{"name":"West Acton Underground Station","modes":["tube"]}},{"type":"Feature","geometry":{"type":"Point","coordinates":[-0.19559,51.48706]},"properties":{"name":"West Brompton Rail Station","modes":["national-rail","overground"]}},{"type":"Feature","geometry":{"type":"Point","coordinates":[-0.1956,51.48727]},"properties":{"name":"West Brompton Underground Station","modes":["tube"]}},{"type":"Feature","geometry":{"type":"Point","coordinates":[-0.10258,51.37843]},"properties":{"name":"West Croydon Rail Station","modes":["national-rail","overground"]}},{"type":"Feature","geometry":{"type":"Point","coordinates":[-0.1017,51.37897]},"properties":{"name":"West Croydon Tram Stop","modes":["tram"]}},{"type":"Feature","geometry":{"type":"Point","coordinates":[-0.47223,51.51006]},"properties":{"name":"West Drayton Rail Station","modes":["elizabeth-line","national-rail"]}},{"type":"Feature","geometry":{"type":"Point","coordinates":[-0.32013,51.51351]},"properties":{"name":"West Ealing Rail Station","modes":["elizabeth-line","national-rail"]}},{"type":"Feature","geometry":{"type":"Point","coordinates":[-0.18836,51.60943]},"properties":{"name":"West Finchley Underground Station","modes":["tube"]}},{"type":"Feature","geometry":{"type":"Point","coordinates":[0.00448,51.52789]},"properties":{"name":"West Ham DLR Station","modes":["dlr"]}},{"type":"Feature","geometry":{"type":"Point","coordinates":[0.00505,51.52814]},"properties":{"name":"West Ham Underground Station","modes":["tube"]}},{"type":"Feature","geometry":{"type":"Point","coordinates":[-0.19118,51.54747]},"properties":{"name":"West Hampstead Rail Station","modes":["overground"]}},{"type":"Feature","geometry":{"type":"Point","coordinates":[-0.19106,51.54664]},"properties":{"name":"West Hampstead Underground Station","modes":["tube"]}},{"type":"Feature","geometry":{"type":"Point","coordinates":[-0.3534,51.57971]},"properties":{"name":"West Harrow Underground Station","modes":["tube"]}},{"type":"Feature","geometry":{"type":"Point","coordinates":[-0.02031,51.50703]},"properties":{"name":"West India Quay DLR Station","modes":["dlr"]}},{"type":"Feature","geometry":{"type":"Point","coordinates":[-0.20664,51.49046]},"properties":{"name":"West Kensington Underground Station","modes":["tube"]}},{"type":"Feature","geometry":{"type":"Point","coordinates":[-0.43789,51.56969]},"properties":{"name":"West Ruislip Underground Station","modes":["tube"]}},{"type":"Feature","geometry":{"type":"Point","coordinates":[0.02246,51.50284]},"properties":{"name":"West Silvertown DLR Station","modes":["dlr"]}},{"type":"Feature","geometry":{"type":"Point","coordinates":[-0.20106,51.52111]},"properties":{"name":"Westbourne Park Underground Station","modes":["tube"]}},{"type":"Feature","geometry":{"type":"Point","coordinates":[-0.02675,51.50943]},"properties":{"name":"Westferry DLR Station","modes":["dlr"]}},{"type":"Feature","geometry":{"type":"Point","coordinates":[-0.12486,51.50132]},"properties":{"name":"Westminster Underground Station","modes":["tube"]}},{"type":"Feature","geometry":{"type":"Point","coordinates":[-0.2243,51.51196]},"properties":{"name":"White City Underground Station","modes":["tube"]}},{"type":"Feature","geometry":{"type":"Point","coordinates":[-0.07091,51.60504]},"properties":{"name":"White Hart Lane Rail Station","modes":["national-rail","overground"]}},{"type":"Feature","geometry":{"type":"Point","coordinates":[-0.06019,51.51943]},"properties":{"name":"Whitechapel","modes":["elizabeth-line"]}},{"type":"Feature","geometry":{"type":"Point","coordinates":[-0.05976,51.51947]},"properties":{"name":"Whitechapel Rail Station","modes":["overground"]}},{"type":"Feature","geometry":{"type":"Point","coordinates":[-0.05997,51.51952]},"properties":{"name":"Whitechapel Underground Station","modes":["tube"]}},{"type":"Feature","geometry":{"type":"Point","coordinates":[-0.22154,51.54915]},"properties":{"name":"Willesden Green Underground Station","modes":["tube"]}},{"type":"Feature","geometry":{"type":"Point","coordinates":[-0.24455,51.5325]},"properties":{"name":"Willesden Junction Rail Station","modes":["overground"]}},{"type":"Feature","geometry":{"type":"Point","coordinates":[-0.24428,51.53226]},"properties":{"name":"Willesden Junction Underground Station","modes":["tube"]}},{"type":"Feature","geometry":{"type":"Point","coordinates":[-0.19972,51.43457]},"properties":{"name":"Wimbledon Park Underground Station","modes":["tube"]}},{"type":"Feature","geometry":{"type":"Point","coordinates":[-0.20582,51.42105]},"properties":{"name":"Wimbledon Tram Stop","modes":["tram"]}},{"type":"Feature","geometry":{"type":"Point","coordinates":[-0.20657,51.42121]},"properties":{"name":"Wimbledon Underground Station","modes":["tube"]}},{"type":"Feature","geometry":{"type":"Point","coordinates":[-0.10989,51.59748]},"properties":{"name":"Wood Green Underground Station","modes":["tube"]}},{"type":"Feature","geometry":{"type":"Point","coordinates":[-0.22453,51.50967]},"properties":{"name":"Wood Lane Underground Station","modes":["tube"]}},{"type":"Feature","geometry":{"type":"Point","coordinates":[-0.00241,51.58658]},"properties":{"name":"Wood Street Rail Station","modes":["overground"]}},{"type":"Feature","geometry":{"type":"Point","coordinates":[0.03397,51.6069]},"properties":{"name":"Woodford Underground Station","modes":["tube"]}},{"type":"Feature","geometry":{"type":"Point","coordinates":[0.04442,51.54926]},"properties":{"name":"Woodgrange Park Rail Station","modes":["overground"]}},{"type":"Feature","geometry":{"type":"Point","coordinates":[-0.18542,51.61801]},"properties":{"name":"Woodside Park Underground Station","modes":["tube"]}},{"type":"Feature","geometry":{"type":"Point","coordinates":[-0.06536,51.3871]},"properties":{"name":"Woodside Tram Stop","modes":["tram"]}},{"type":"Feature","geometry":{"type":"Point","coordinates":[0.0705,51.49202]},"properties":{"name":"Woolwich","modes":["bus","elizabeth-line"]}},{"type":"Feature","geometry":{"type":"Point","coordinates":[0.06913,51.49001]},"properties":{"name":"Woolwich Arsenal DLR Station","modes":["dlr"]}}]}